#dP2021  7 27  0  0  0.00000000     289 ORBIT IGS14 BHN ESOC                    
## 2168 172800.00000000   300.00000000 59422 0.0000000000000                    
+  116   G13G28G21G22G07G05G20G31G17G15G16G29G12G19G02G25G01                    
+        G30G24G27G06G09G03G32G26G08G10G04G18G23G14G11R09R11                    
+        R20R19R13R01R22R16R08R03R07R02R17R18R21R05R15R12R04                    
+        R24E11E12E19E18E14E26E24E30E08E09E01E02E07E03E04E05                    
+        E21E25E27E31E36E13E15E33C11C12C14C19C20C27C28C22C21                    
+        C29C30C23C24C26C25C32C33C35C34C36C37C46C45C44C43C41                    
+        C42C06C07C08C09C10C13C16C38C39C40J01J02J03  0  0  0                    
++         5  5  5  5  5  5  5  4  5  5  5  5  5  5  5  5  5                    
++         5  5  5  5  5  5  5  5  5  6  5  5  5  5  5  7  6                    
++         6  6  6  7  6  5  5  6  5  6  5  5  5  6  5  6  6                    
++         5  5  5  5  5  5  5  5  5  5  5  5  5  5  5  5  5                    
++         5  5  5  5  5  5  5  5  6  5  6  5  5  5  5  5  5                    
++         5  5  5  5  5  5  5  6  5  6  5  5  6  6  5  6  6                    
++         6  6  6  6  6  6  7  5  8  7  7  7  7  6  0  0  0                    
%c M  cc GPS ccc cccc cccc cccc cccc ccccc ccccc ccccc ccccc                    
%c cc cc ccc ccc cccc cccc cccc cccc ccccc ccccc ccccc ccccc                    
%f  0.0000000  0.000000000  0.00000000000  0.000000000000000                    
%f  0.0000000  0.000000000  0.00000000000  0.000000000000000                    
%i    0    0    0    0      0      0      0      0         0                    
%i    0    0    0    0      0      0      0      0         0                    
/* CCCCCCCCCCCCCCCCCCCCCCCCCCCCCCCCCCCCCCCCCCCCCCCCCCCCCCCCCCCCCCCCCCCCCCCCCCCCC
/* CCCCCCCCCCCCCCCCCCCCCCCCCCCCCCCCCCCCCCCCCCCCCCCCCCCCCCCCCCCCCCCCCCCCCCCCCCCCC
/* CCCCCCCCCCCCCCCCCCCCCCCCCCCCCCCCCCCCCCCCCCCCCCCCCCCCCCCCCCCCCCCCCCCCCCCCCCCCC
/* PCV:IGS14      OL/AL:EOT11A   NONE     YN ORB:CoN CLK:CoN                    
*  2021  7 27 12  5  0.00000000                                                 
PG13 -22178.941467 -11866.540457   8615.916188    163.210686                    
PG28  -6820.418372 -13669.728875  22268.251912    530.601637                    
PG21  15270.659325  -5272.584972  21706.881438    133.753160                    
PG22  24034.903784  -8473.311395   7285.546587   -553.206137                    
PG07   6484.524887 -24613.125245  -6257.142617    211.891785                    
PG05 -24167.900185   4487.407870 -10434.977760    -49.201051                    
PG20 -17957.977738  -4562.666995 -18965.867478    519.970845                    
PG31   8565.298188  20101.649056 -14852.718566   -130.953422                    
PG17  -8177.800226 -19860.953092  16047.889860    480.157855                    
PG15 -22826.881823   -514.568230  13476.153001   -132.618722                    
PG16  22058.483318   2709.042001 -15126.460027   -363.863246                    
PG29  -7632.127780  12702.143918 -22087.155306   -386.809621                    
PG12 -24317.971699  10463.183188  -1088.508912    -74.432909                    
PG19 -15720.903896 -19998.558728   7612.682457     31.758621                    
PG02 -13398.542576 -11352.555465 -19256.442386   -622.410006                    
PG25 -17458.678561  16847.744930 -10745.874003    180.775788                    
PG01  13140.110301 -13956.840212  17958.709419    615.665282                    
PG30  -1578.658298 -25811.320786   5548.379385   -455.527483                    
PG24 -14659.175038   9151.039774  19816.200573    189.076839                    
PG27  23416.715002  11925.234898   4856.113816   -169.262444                    
PG06  -7243.139609 -21727.178406 -13340.663285     46.352397                    
PG09   5186.233316 -14821.982666 -21481.516607   -356.960822                    
PG03  23505.821070 -12189.400381  -1117.459561   -233.746549                    
PG32  12106.799791  19564.503320  13536.506938     11.684369                    
PG26  13650.938022   9759.823248 -20696.930234    115.560467                    
PG08  22496.777672   3168.383475  13994.918979    -30.334208                    
PG10   1035.472873  15795.103020  21401.183881   -170.368241                    
PG04  16115.452009  -5806.816322 -20307.941364   -203.101581                    
PG18  -5287.148359  25657.999634  -4119.845280    337.882176                    
PG23 -11163.987495  18102.636359  15847.570004     78.930376                    
PG14   -819.131548 -15942.188411  21217.843087     37.615164                    
PG11 -12345.792938 -12632.536132 -19853.192476     24.482848                    
PR09   9971.600970 -21522.422857   9302.709965      5.022346                    
PR11 -13752.344534   1729.442434  21431.823077     45.165697                    
PR20  -1054.591843 -20846.683988  14636.313854    -53.165628                    
PR19   9597.125099  -3880.194917  23305.544961   -153.130978                    
PR13 -10581.378185  21568.286060  -8591.398166    -58.333361                    
PR01 -22155.619714   3665.710215  12114.397059     82.911502                    
PR22 -13500.201583 -11182.981793 -18510.508869   -124.799691                    
PR16  16903.744598 -17723.090251  -7369.715724    -18.580764                    
PR08 -24977.306665  -4327.012540  -2688.750184    -60.124722                    
PR03  14982.972852  10375.351883  17915.212809     40.242122                    
PR07 -15530.842435 -10213.899714 -17408.290600    -41.893322                    
PR02  -3659.865571  10466.753558  23010.028164    487.562812                    
PR17  11047.621735  22784.734056   2883.026106    444.636719                    
PR18  13697.038816  12149.643610  17790.624143     84.849443                    
PR21 -11416.107283 -22445.968545  -4178.192435   -227.010489                    
PR05  21132.964834  -3833.856261 -13767.626700     76.067999                    
PR15  14121.597594  -2024.121653 -21118.420553    102.441352                    
PR12 -17388.224662  16611.557217   8518.003227    248.711851                    
PR04  24958.037922   4441.284149   2894.577676     97.642580                    
PR24   1588.853121  21306.568871 -13910.848488     52.108171                    
PE11  13622.703157  19719.184701  17361.783901   5661.966213                    
PE12   2785.072616  29465.904868   -780.145951   5090.376795                    
PE19 -15839.225434  10343.227839  22774.506605    337.232199                    
PE18    538.532813  22256.237412 -20654.387107  -1660.486334                    
PE14 -12165.659734 -20870.671758  11008.590985  -1514.665217                    
PE26 -16147.537206   2108.871609 -24722.397694   1531.192587                    
PE24  14997.844222   9146.212082 -23831.829610  -1030.334222                    
PE30   4510.275552 -20582.177305  20790.038365   2750.503619                    
PE08  -7755.349780 -19403.982232 -20967.031910   5963.732647                    
PE09  24485.684273  15449.660618   6120.818854   5586.428014                    
PE01 -21003.143429  20004.784731  -5900.150827  -1158.907744                    
PE02  20915.263301 -20063.224871   6045.451171    235.782350                    
PE07 -24324.644133 -15677.723278  -6246.395925   -566.622929                    
PE03  13695.168900 -11965.767395 -23350.802376   -457.174721                    
PE04   7214.148674  19514.728596  21061.530600   -822.182734                    
PE05  26932.553618   2751.000759 -11958.992656   -261.948170                    
PE21 -25679.264703   8614.994121  11947.582587   -678.583477                    
PE25  25645.651777  -8454.882387 -12110.828520   -541.313769                    
PE27 -15757.985257  -8314.339044  23645.553227    -84.746732                    
PE31  -3358.496425  20221.961776 -21341.481466   -483.721638                    
PE36  16084.896792  -1105.891767  24818.996973   -240.131686                    
PE13 -13479.713893 -20056.355605 -17097.256040    419.540773                    
PE15  -2909.492983 -29447.873088    742.726154    801.244547                    
PE33  -9350.505927  21475.030309 -18103.792600   -467.102139                    
PC11  19615.193148  14829.901339  13203.224558    482.016981                    
PC12  12686.758124  24498.495815  -4071.858462    799.107973                    
PC14  25144.408420   5672.453477  10638.852680    770.259665                    
PC19 -27865.781442    982.394916  -1373.977429    924.439888                    
PC20 -19837.704114 -10224.001148 -16761.071030   -833.999676                    
PC27  -5494.331230 -24355.042879  12430.832809    571.073907                    
PC28   9888.711638 -13286.878141  22458.846982    -45.732482                    
PC22 -20059.866242  11945.998642  15310.073805   -948.837469                    
PC21   -616.530415  15915.877926  22930.169869   -937.228149                    
PC29 -19644.669854  -4818.351135 -19237.432980    425.098535                    
PC30 -18150.110713 -20750.141866  -4280.848778    475.402743                    
PC23  16631.511484 -21103.522771  -7516.450578   -965.628398                    
PC24   9155.946229  15647.509291 -21207.928714   -960.068038                    
PC26  -3903.372347  25608.270352 -10340.690762    872.853061                    
PC25  18459.457342  -5145.127934 -20292.576729   -879.571688                    
PC32    493.410086 -15919.832081 -22900.385592   -926.598631                    
PC33  27835.744703  -1050.365884   1491.555346   -948.043793                    
PC35  -9762.061815  13344.078072 -22494.507039   -167.843518                    
PC34  18414.888583  20373.460482   4998.054390   -618.735902                    
PC36 -18498.797851   4272.149245  20484.994733   -736.745938                    
PC37   5209.206508 -25716.367644   9547.102533   -862.902844                    
PC46  -9821.093413 -14650.026633  21645.552210    159.798568                    
PC45 -16513.048129  21225.990687   7433.295200    504.505693                    
PC44   6085.949071  24175.876582 -12581.133524    310.469984                    
PC43  19841.078561   5441.882389  18850.699181   -840.413767                    
PC41  20288.800793 -11861.783359 -15001.203632   -967.544212                    
PC42  19108.710794  10699.270911  17325.647426   -924.308661                    
PC06  -5792.425768  28986.880240  30738.188492    678.037307                    
PC07 -21897.207701  25974.722456 -24990.690463     76.254373                    
PC08 -16992.711219  38157.048688  -3830.728739   -910.662562                    
PC09   6405.460432  36085.278004  21550.374425    342.302398                    
PC10  -8124.564390  27580.488833 -30717.130485    -14.563684                    
PC13  -8159.067255  40210.212357   9219.022188    351.785436                    
PC16  -3478.477435  29630.933110  30016.866952   -894.274110                    
PC38 -15768.710866  38946.205583  -2296.910590    164.459148                    
PC39  -1138.261072  29864.266657  29820.890187     32.596234                    
PC40 -14154.251802  22460.545744 -32768.200382    184.484667                    
PJ01 -29563.441148  22443.788455  25081.472679   -425.066396                    
PJ02 -35638.635546  22618.106503   3590.206047     -1.075643                    
PJ03 -19812.142970  22877.985998 -24736.440107     -0.374174                    
EOF                                                                             
